{
    "links": {
        "self": "http://www.neowsapp.com/rest/v1/neo/3892747?api_key=iIulBulltgU6a56xZRHN4H3l9WmuAYTsLGpBGhQ2"
    },
    "id": "3892747",
    "neo_reference_id": "3892747",
    "name": "(2019 VN4)",
    "designation": "2019 VN4",
    "nasa_jpl_url": "http://ssd.jpl.nasa.gov/sbdb.cgi?sstr=3892747",
    "absolute_magnitude_h": 25.5,
    "estimated_diameter": {
        "kilometers": {
            "estimated_diameter_min": 0.0211132445,
            "estimated_diameter_max": 0.0472106499
        },
        "meters": {
            "estimated_diameter_min": 21.113244479,
            "estimated_diameter_max": 47.2106498806
        },
        "miles": {
            "estimated_diameter_min": 0.0131191578,
            "estimated_diameter_max": 0.0293353287
        },
        "feet": {
            "estimated_diameter_min": 69.2691770164,
            "estimated_diameter_max": 154.8905885541
        }
    },
    "is_potentially_hazardous_asteroid": false,
    "close_approach_data": [
        {
            "close_approach_date": "2019-10-28",
            "close_approach_date_full": "2019-Oct-28 19:01",
            "epoch_date_close_approach": 1572289260000,
            "relative_velocity": {
                "kilometers_per_second": "15.0765407342",
                "kilometers_per_hour": "54275.5466429407",
                "miles_per_hour": "33724.7139682206"
            },
            "miss_distance": {
                "astronomical": "0.0766766983",
                "lunar": "29.8272356387",
                "kilometers": "11470670.744312621",
                "miles": "7127544.2918953298"
            },
            "orbiting_body": "Earth"
        },
        {
            "close_approach_date": "2120-04-22",
            "close_approach_date_full": "2120-Apr-22 13:35",
            "epoch_date_close_approach": 4743236100000,
            "relative_velocity": {
                "kilometers_per_second": "25.9260196894",
                "kilometers_per_hour": "93333.6708819552",
                "miles_per_hour": "57993.9134432904"
            },
            "miss_distance": {
                "astronomical": "0.407655206",
                "lunar": "158.577875134",
                "kilometers": "60984350.51201122",
                "miles": "37893918.243826036"
            },
            "orbiting_body": "Earth"
        }
    ],
    "orbital_data": {
        "orbit_id": "1",
        "orbit_determination_date": "2019-11-07 18:14:12",
        "first_observation_date": "2019-11-05",
        "last_observation_date": "2019-11-07",
        "data_arc_in_days": 2,
        "observations_used": 17,
        "orbit_uncertainty": "9",
        "minimum_orbit_intersection": ".0420038",
        "jupiter_tisserand_invariant": "4.931",
        "epoch_osculation": "2458793.5",
        "eccentricity": ".3893679588856914",
        "semi_major_axis": "1.275189000736051",
        "inclination": "21.15486026849146",
        "ascending_node_longitude": "43.35791382784384",
        "orbital_period": "525.9691402469263",
        "perihelion_distance": ".7786712623259703",
        "perihelion_argument": "268.4717003089403",
        "aphelion_distance": "1.771706739146131",
        "perihelion_time": "2458723.234966984349",
        "mean_anomaly": "48.09295821758467",
        "mean_motion": ".6844508022485712",
        "equinox": "J2000",
        "orbit_class": {
            "orbit_class_type": "APO",
            "orbit_class_description": "Near-Earth asteroid orbits which cross the Earth’s orbit similar to that of 1862 Apollo",
            "orbit_class_range": "a (semi-major axis) > 1.0 AU; q (perihelion) < 1.017 AU"
        }
    },
    "is_sentry_object": false
}